NORAD_CAT_ID,OBJECT_NAME,OBJECT_TYPE,EPOCH,MEAN_MOTION,ECCENTRICITY,INCLINATION,RA_OF_ASC_NODE,ARG_OF_PERICENTER,MEAN_ANOMALY,BSTAR,MEAN_MOTION_DOT,MEAN_MOTION_DDOT,TLE_LINE0,TLE_LINE1,TLE_LINE2,SEMIMAJOR_AXIS,PERIOD,APOGEE,PERIGEE,DECAYED
55287.0,STARLINK-5341,PAYLOAD,2024-03-10 04:38:20,14.98331365,0.0002934,70.0007,43.9749,269.0477,91.0345,6.1408e-05,6.4e-06,0.0,0 STARLINK-5341,1 55287U 23010U   24070.19328868  .00000640  00000-0  61408-4 0  9994,2 55287  70.0007  43.9749 0002934 269.0477  91.0345 14.98331365 64175,6950.189,96.107,574.093,570.014,0.0
55287.0,STARLINK-5341,PAYLOAD,2024-03-10 07:50:36,14.98333759,0.0002916,70.0008,43.6383,269.0371,91.0454,8.6845e-05,9.43e-06,0.0,0 STARLINK-5341,1 55287U 23010U   24070.32680641  .00000943  00000-0  86845-4 0  9997,2 55287  70.0008  43.6383 0002916 269.0371  91.0454 14.98333759 64507,6950.181,96.107,574.073,570.02,0.0
55287.0,STARLINK-5341,PAYLOAD,2024-03-10 22:15:49,14.98326684,0.0002999,70.0005,42.1227,269.1249,90.9567,3.3953e-05,3.12e-06,0.0,0 STARLINK-5341,1 55287U 23010U   24070.92765138  .00000312  00000-0  33953-4 0  9990,2 55287  70.0005  42.1227 0002999 269.1249  90.9567 14.98326684 64592,6950.203,96.107,574.153,569.984,0.0
55287.0,STARLINK-5341,PAYLOAD,2024-03-11 04:40:21,14.98329051,0.0003025,70.0005,41.4503,271.7806,88.3007,2.4341e-05,1.97e-06,0.0,0 STARLINK-5341,1 55287U 23010U   24071.19469078  .00000197  00000-0  24341-4 0  9996,2 55287  70.0005  41.4503 0003025 271.7806  88.3007 14.98329051 64322,6950.196,96.107,574.163,569.958,0.0
55287.0,STARLINK-5341,PAYLOAD,2024-03-11 07:52:37,14.98331156,0.0002998,70.0006,41.1136,271.6848,88.3968,4.6989e-05,4.68e-06,0.0,0 STARLINK-5341,1 55287U 23010U   24071.32820883  .00000468  00000-0  46989-4 0  9999,2 55287  70.0006  41.1136 0002998 271.6848  88.3968 14.98331156 64656,6950.189,96.107,574.138,569.971,0.0
55287.0,STARLINK-5341,PAYLOAD,2024-03-12 04:42:22,14.9833227,0.0002859,70.0012,38.9251,272.9268,87.1564,1.2175e-05,5.2e-07,0.0,0 STARLINK-5341,1 55287U 23010U   24072.19608916  .00000052  00000-0  12175-4 0  9995,2 55287  70.0012  38.9251 0002859 272.9268  87.1564 14.98332270 64478,6950.186,96.107,574.038,570.064,0.0
55287.0,STARLINK-5341,PAYLOAD,2024-03-12 07:54:37,14.98335029,0.0002835,70.0013,38.5885,273.0228,87.0606,4.3486e-05,4.26e-06,0.0,0 STARLINK-5341,1 55287U 23010U   24072.32960630  .00000426  00000-0  43486-4 0  9998,2 55287  70.0013  38.5885 0002835 273.0228  87.0606 14.98335029 64808,6950.177,96.107,574.013,570.072,0.0
55287.0,STARLINK-5341,PAYLOAD,2024-03-13 04:44:22,14.98331202,0.0002798,70.0012,36.4016,270.3206,89.7632,6.0993e-05,6.35e-06,0.0,0 STARLINK-5341,1 55287U 23010U   24073.19748712  .00000635  00000-0  60993-4 0  9993,2 55287  70.0012  36.4016 0002798 270.3206  89.7632 14.98331202 64621,6950.189,96.107,573.999,570.11,0.0
55287.0,STARLINK-5341,PAYLOAD,2024-03-13 14:21:11,14.98331655,0.0002756,70.0014,35.3911,271.2606,88.8237,4.9303e-05,4.95e-06,0.0,0 STARLINK-5341,1 55287U 23010U   24073.59804687  .00000495  00000-0  49303-4 0  9997,2 55287  70.0014  35.3911 0002756 271.2606  88.8237 14.98331655 64996,6950.188,96.107,573.968,570.137,0.0
55287.0,STARLINK-5341,PAYLOAD,2024-03-13 22:21:51,14.9833321,0.0002632,70.0018,34.5498,263.0888,96.9972,4.3022e-05,4.2e-06,0.0,0 STARLINK-5341,1 55287U 23010U   24073.93184527  .00000420  00000-0  43022-4 0  9999,2 55287  70.0018  34.5498 0002632 263.0888  96.9972 14.98333210 65047,6950.183,96.107,573.877,570.219,0.0
55287.0,STARLINK-5341,PAYLOAD,2024-03-14 04:46:23,14.98333263,0.0002654,70.0016,33.8767,262.8749,97.2108,4.104e-05,3.97e-06,0.0,0 STARLINK-5341,1 55287U 23010U   24074.19888487  .00000397  00000-0  41040-4 0  9995,2 55287  70.0016  33.8767 0002654 262.8749  97.2108 14.98333263 64775,6950.183,96.107,573.892,570.203,0.0
55287.0,STARLINK-5341,PAYLOAD,2024-03-14 06:22:31,14.98333388,0.0002652,70.0016,33.7084,262.9737,97.112,4.157e-05,4.03e-06,0.0,0 STARLINK-5341,1 55287U 23010U   24074.26564466  .00000403  00000-0  41570-4 0  9997,2 55287  70.0016  33.7084 0002652 262.9737  97.1120 14.98333388 65099,6950.182,96.107,573.891,570.204,0.0
55287.0,STARLINK-5341,PAYLOAD,2024-03-14 22:23:52,14.98325968,0.0002537,70.0019,32.0248,264.0599,96.0271,-3.8082e-05,-5.47e-06,0.0,0 STARLINK-5341,1 55287U 23010U   24074.93325171 -.00000547  00000-0 -38082-4 0  9994,2 55287  70.0019  32.0248 0002537 264.0599  96.0271 14.98325968 65198,6950.205,96.107,573.834,570.307,0.0
55287.0,STARLINK-5341,PAYLOAD,2024-03-15 04:48:25,14.98324189,0.000259,70.0017,31.3519,262.5658,97.5207,-5.842e-05,-7.9e-06,0.0,0 STARLINK-5341,1 55287U 23010U   24075.20029392 -.00000790  00000-0 -58420-4 0  9999,2 55287  70.0017  31.3519 0002590 262.5658  97.5207 14.98324189 64926,6950.211,96.107,573.876,570.276,0.0
55287.0,STARLINK-5341,PAYLOAD,2024-03-15 22:25:53,14.98332393,0.0002807,70.001,29.4997,268.9735,91.1103,7.6343e-05,8.18e-06,0.0,0 STARLINK-5341,1 55287U 23010U   24075.93464568  .00000818  00000-0  76343-4 0  9990,2 55287  70.0010  29.4997 0002807 268.9735  91.1103 14.98332393 65342,6950.185,96.107,574.001,570.1,0.0
55287.0,STARLINK-5341,PAYLOAD,2024-03-16 04:50:25,14.98334975,0.00029,70.0007,28.826,269.2017,90.881,4.8145e-05,4.82e-06,0.0,0 STARLINK-5341,1 55287U 23010U   24076.20168436  .00000482  00000-0  48145-4 0  9992,2 55287  70.0007  28.8260 0002900 269.2017  90.8810 14.98334975 65074,6950.178,96.107,574.058,570.027,0.0
55287.0,STARLINK-5341,PAYLOAD,2024-03-16 06:26:33,14.98335758,0.0002897,70.0008,28.6578,269.4936,90.5891,5.6907e-05,5.86e-06,0.0,0 STARLINK-5341,1 55287U 23010U   24076.26844350  .00000586  00000-0  56907-4 0  9994,2 55287  70.0008  28.6578 0002897 269.4936  90.5891 14.98335758 65393,6950.175,96.107,574.054,570.027,0.0
55287.0,STARLINK-5341,PAYLOAD,2024-03-16 20:51:46,14.98326877,0.0002958,70.0007,27.1433,269.4539,90.6281,8.1299e-05,8.77e-06,0.0,0 STARLINK-5341,1 55287U 23010U   24076.86928845  .00000877  00000-0  81299-4 0  9997,2 55287  70.0007  27.1433 0002958 269.4539  90.6281 14.98326877 65175,6950.203,96.107,574.123,570.012,0.0
55287.0,STARLINK-5341,PAYLOAD,2024-03-16 22:27:54,14.98326508,0.000297,70.0007,26.9752,269.4865,90.5953,7.4127e-05,7.92e-06,0.0,0 STARLINK-5341,1 55287U 23010U   24076.93604901  .00000792  00000-0  74127-4 0  9997,2 55287  70.0007  26.9752 0002970 269.4865  90.5953 14.98326508 65493,6950.204,96.107,574.133,570.004,0.0
55287.0,STARLINK-5341,PAYLOAD,2024-03-17 06:28:34,14.98329165,0.0002952,70.0008,26.1336,269.1224,90.9597,9.6916e-05,1.064e-05,0.0,0 STARLINK-5341,1 55287U 23010U   24077.26984725  .00001064  00000-0  96916-4 0  9992,2 55287  70.0008  26.1336 0002952 269.1224  90.9597 14.98329165 65546,6950.195,96.107,574.112,570.009,0.0
55287.0,STARLINK-5341,PAYLOAD,2024-03-17 20:53:47,14.98334684,0.0002826,70.0011,24.619,264.4346,95.649,1.6934e-05,1.09e-06,0.0,0 STARLINK-5341,1 55287U 23010U   24077.87068507  .00000109  00000-0  16934-4 0  9991,2 55287  70.0011  24.6190 0002826 264.4346  95.6490 14.98334684 65326,6950.178,96.107,574.008,570.079,0.0
55287.0,STARLINK-5341,PAYLOAD,2024-03-17 22:29:55,14.98334637,0.0002833,70.0011,24.4508,264.2186,95.865,1.4954e-05,8.5e-07,0.0,0 STARLINK-5341,1 55287U 23010U   24077.93744492  .00000085  00000-0  14954-4 0  9995,2 55287  70.0011  24.4508 0002833 264.2186  95.8650 14.98334637 65648,6950.179,96.107,574.013,570.075,0.0
55287.0,STARLINK-5341,PAYLOAD,2024-03-18 06:30:35,14.98338543,0.0002751,70.0013,23.6089,263.3509,96.7337,6.3677e-05,6.67e-06,0.0,0 STARLINK-5341,1 55287U 23010U   24078.27123983  .00000667  00000-0  63677-4 0  9991,2 55287  70.0013  23.6089 0002751 263.3509  96.7337 14.98338543 65690,6950.166,96.106,573.943,570.119,0.0
55287.0,STARLINK-5341,PAYLOAD,2024-03-18 20:55:48,14.98329565,0.000256,70.0018,22.0947,255.2219,104.8657,4.9117e-05,4.93e-06,0.0,0 STARLINK-5341,1 55287U 23010U   24078.87208425  .00000493  00000-0  49117-4 0  9992,2 55287  70.0018  22.0947 0002560 255.2219 104.8657 14.98329565 65473,6950.194,96.107,573.838,570.28,0.0
55287.0,STARLINK-5341,PAYLOAD,2024-03-18 22:31:56,14.98329757,0.0002561,70.0019,21.9264,255.044,105.0435,5.0096e-05,5.05e-06,0.0,0 STARLINK-5341,1 55287U 23010U   24078.93884409  .00000505  00000-0  50096-4 0  9993,2 55287  70.0019  21.9264 0002561 255.0440 105.0435 14.98329757 65794,6950.194,96.107,573.839,570.279,0.0
55287.0,STARLINK-5341,PAYLOAD,2024-03-19 06:32:35,14.98365512,0.0002159,70.002,21.0852,257.4924,102.5994,-0.00048221,-5.847e-05,0.0,0 STARLINK-5341,1 55287U 23010U   24079.27263252 -.00005847  00000-0 -48221-3 0  9990,2 55287  70.0020  21.0852 0002159 257.4924 102.5994 14.98365512 65843,6950.083,96.105,573.449,570.448,0.0
55287.0,STARLINK-5341,PAYLOAD,2024-03-19 20:57:48,14.9833453,0.0002534,70.002,19.5708,258.0139,102.0736,5.9692e-05,6.19e-06,0.0,0 STARLINK-5341,1 55287U 23010U   24079.87347924  .00000619  00000-0  59692-4 0  9990,2 55287  70.0020  19.5708 0002534 258.0139 102.0736 14.98334530 65628,6950.179,96.107,573.805,570.283,0.0
55287.0,STARLINK-5341,PAYLOAD,2024-03-20 01:46:14,14.98316552,0.0002882,70.0013,19.0663,259.1254,100.9581,-0.00011655,-1.483e-05,0.0,0 STARLINK-5341,1 55287U 23010U   24080.07377523 -.00001483  00000-0 -11655-3 0  9990,2 55287  70.0013  19.0663 0002882 259.1254 100.9581 14.98316552 65653,6950.234,96.108,574.103,570.096,0.0
55287.0,STARLINK-5341,PAYLOAD,2024-03-20 06:34:36,14.9834014,0.000255,70.0023,18.5607,251.252,108.8362,9.3449e-05,1.023e-05,0.0,0 STARLINK-5341,1 55287U 23010U   24080.27403413  .00001023  00000-0  93449-4 0  9990,2 55287  70.0023  18.5607 0002550 251.2520 108.8362 14.98340140 65684,6950.162,96.106,573.799,570.254,0.0
55287.0,STARLINK-5341,PAYLOAD,2024-03-20 20:59:49,14.98329465,0.0002363,70.004,17.048,225.2122,134.8845,3.8322e-05,3.64e-06,0.0,0 STARLINK-5341,1 55287U 23010U   24080.87488171  .00000364  00000-0  38322-4 0  9996,2 55287  70.0040  17.0480 0002363 225.2122 134.8845 14.98329465 65779,6950.195,96.107,573.702,570.417,0.0
